NORAD_CAT_ID,OBJECT_NAME,OBJECT_TYPE,EPOCH,MEAN_MOTION,ECCENTRICITY,INCLINATION,RA_OF_ASC_NODE,ARG_OF_PERICENTER,MEAN_ANOMALY,BSTAR,MEAN_MOTION_DOT,MEAN_MOTION_DDOT,TLE_LINE0,TLE_LINE1,TLE_LINE2,SEMIMAJOR_AXIS,PERIOD,APOGEE,PERIGEE,DECAYED
55418.0,STARLINK-5030,PAYLOAD,2024-04-28 10:00:29,14.98331132,0.0002941,70.0007,359.6771,273.7434,86.3389,8.7063e-06,1.1e-07,0.0,0 STARLINK-5030,1 55418U 23014AD  24119.41700563  .00000011  00000-0  87063-5 0  9997,2 55418  70.0007 359.6771 0002941 273.7434  86.3389 14.98331132 69662,6950.189,96.107,574.098,570.01,0.0
55418.0,STARLINK-5030,PAYLOAD,2024-04-28 21:13:25,14.9832981,0.0002961,70.0008,358.4988,273.3398,86.7422,6.2851e-05,6.57e-06,0.0,0 STARLINK-5030,1 55418U 23014AD  24119.88432500  .00000657  00000-0  62851-4 0  9994,2 55418  70.0008 358.4988 0002961 273.3398  86.7422 14.98329810 68792,6950.193,96.107,574.116,570.001,0.0
55418.0,STARLINK-5030,PAYLOAD,2024-04-28 22:49:33,14.98332051,0.0003105,70.0008,358.3305,275.8304,84.2501,7.9596e-05,8.57e-06,0.0,0 STARLINK-5030,1 55418U 23014AD  24119.95108331  .00000857  00000-0  79596-4 0  9990,2 55418  70.0008 358.3305 0003105 275.8304  84.2501 14.98332051 69747,6950.187,96.107,574.21,569.894,0.0
55418.0,STARLINK-5030,PAYLOAD,2024-04-29 02:01:49,14.98332715,0.0003116,70.0008,357.9939,275.8557,84.2246,8.9846e-05,9.79e-06,0.0,0 STARLINK-5030,1 55418U 23014AD  24120.08460286  .00000979  00000-0  89846-4 0  9990,2 55418  70.0008 357.9939 0003116 275.8557  84.2246 14.98332715 69762,6950.184,96.107,574.215,569.884,0.0
55418.0,STARLINK-5030,PAYLOAD,2024-04-29 22:51:34,14.98329798,0.0002985,70.0007,355.8058,274.5217,85.5601,0.0001584,1.797e-05,0.0,0 STARLINK-5030,1 55418U 23014AD  24120.95248277  .00001797  00000-0  15840-3 0  9991,2 55418  70.0007 355.8058 0002985 274.5217  85.5601 14.98329798 69892,6950.194,96.107,574.133,569.984,0.0
55418.0,STARLINK-5030,PAYLOAD,2024-04-30 02:03:50,14.98332479,0.0002981,70.0007,355.4692,274.5482,85.5337,0.00018746,2.145e-05,0.0,0 STARLINK-5030,1 55418U 23014AD  24121.08600074  .00002145  00000-0  18746-3 0  9999,2 55418  70.0007 355.4692 0002981 274.5482  85.5337 14.98332479 68976,6950.185,96.107,574.122,569.978,0.0
55418.0,STARLINK-5030,PAYLOAD,2024-04-30 08:28:22,14.98331281,0.000298,70.0008,354.7958,274.5868,85.4951,0.0001231,1.376e-05,0.0,0 STARLINK-5030,1 55418U 23014AD  24121.35304246  .00001376  00000-0  12310-3 0  9997,2 55418  70.0008 354.7958 0002980 274.5868  85.4951 14.98331281 69951,6950.189,96.107,574.125,569.983,0.0
55418.0,STARLINK-5030,PAYLOAD,2024-04-30 22:53:35,14.98333499,0.0002955,70.0008,353.2814,271.8512,88.2308,7.1865e-05,7.65e-06,0.0,0 STARLINK-5030,1 55418U 23014AD  24121.95388131  .00000765  00000-0  71865-4 0  9990,2 55418  70.0008 353.2814 0002955 271.8512  88.2308 14.98333499 70046,6950.182,96.107,574.101,569.993,0.0
55418.0,STARLINK-5030,PAYLOAD,2024-05-01 08:30:23,14.9833437,0.000294,70.0007,352.2714,271.3948,88.6874,7.3078e-05,7.79e-06,0.0,0 STARLINK-5030,1 55418U 23014AD  24122.35443995  .00000779  00000-0  73078-4 0  9998,2 55418  70.0007 352.2714 0002940 271.3948  88.6874 14.98334370 69167,6950.179,96.107,574.088,570.001,0.0
55418.0,STARLINK-5030,PAYLOAD,2024-05-01 21:19:27,14.9833616,0.0002901,70.0007,350.9244,269.8615,90.2212,6.849e-05,7.24e-06,0.0,0 STARLINK-5030,1 55418U 23014AD  24122.88851679  .00000724  00000-0  68490-4 0  9990,2 55418  70.0007 350.9244 0002901 269.8615  90.2212 14.98336160 70188,6950.174,96.107,574.055,570.023,0.0
55418.0,STARLINK-5030,PAYLOAD,2024-05-02 02:07:52,14.98334779,0.000294,70.0006,350.4193,269.4754,90.6068,4.4936e-05,4.43e-06,0.0,0 STARLINK-5030,1 55418U 23014AD  24123.08879741  .00000443  00000-0  44936-4 0  9990,2 55418  70.0006 350.4193 0002940 269.4754  90.6068 14.98334779 70219,6950.178,96.107,574.086,570.0,0.0
55418.0,STARLINK-5030,PAYLOAD,2024-05-02 19:45:21,14.9832682,0.0002989,70.0002,348.5673,269.5421,90.5395,1.2964e-05,6.2e-07,0.0,0 STARLINK-5030,1 55418U 23014AD  24123.82316266  .00000062  00000-0  12964-4 0  9993,2 55418  70.0002 348.5673 0002989 269.5421  90.5395 14.98326820 69387,6950.203,96.107,574.145,569.99,0.0
55418.0,STARLINK-5030,PAYLOAD,2024-05-03 00:33:44,14.98332789,0.0003079,69.9998,348.0617,266.6361,93.4446,5.2597e-05,5.35e-06,0.0,0 STARLINK-5030,1 55418U 23014AD  24124.02343729  .00000535  00000-0  52597-4 0  9991,2 55418  69.9998 348.0617 0003079 266.6361  93.4446 14.98332789 69417,6950.184,96.107,574.189,569.909,0.0
55418.0,STARLINK-5030,PAYLOAD,2024-05-03 14:58:57,14.98334076,0.0003192,69.9995,346.5465,266.4741,93.6053,0.0001057,1.169e-05,0.0,0 STARLINK-5030,1 55418U 23014AD  24124.62427346  .00001169  00000-0  10570-3 0  9993,2 55418  69.9995 346.5465 0003192 266.4741  93.6053 14.98334076 70446,6950.18,96.107,574.264,569.827,0.0
55418.0,STARLINK-5030,PAYLOAD,2024-05-03 21:23:29,14.98304038,0.000291,69.9996,345.8741,271.842,88.2406,0.00065559,7.733e-05,0.0,0 STARLINK-5030,1 55418U 23014AD  24124.89131699  .00007733  00000-0  65559-3 0  9995,2 55418  69.9996 345.8741 0002910 271.8420  88.2406 14.98304038 70488,6950.273,96.109,574.161,570.116,0.0
55418.0,STARLINK-5030,PAYLOAD,2024-05-04 00:35:45,14.98341555,0.0002983,69.9996,345.5374,267.3791,92.7027,2.845e-05,2.47e-06,0.0,0 STARLINK-5030,1 55418U 23014AD  24125.02483037  .00000247  00000-0  28450-4 0  9990,2 55418  69.9996 345.5374 0002983 267.3791  92.7027 14.98341555 69569,6950.157,96.106,574.095,569.949,0.0
55418.0,STARLINK-5030,PAYLOAD,2024-05-04 08:36:27,14.98264416,0.0002773,69.9995,344.6956,260.7314,99.3531,0.0013005,0.00015432,0.0,0 STARLINK-5030,1 55418U 23014AD  24125.35865633  .00015432  00000-0  13005-2 0  9992,2 55418  69.9995 344.6956 0002773 260.7314  99.3531 14.98264416 69618,6950.396,96.111,574.188,570.333,0.0
55418.0,STARLINK-5030,PAYLOAD,2024-05-04 19:49:22,14.98322577,0.000305,69.9996,343.5174,266.0912,93.9898,0.00014039,1.582e-05,0.0,0 STARLINK-5030,1 55418U 23014AD  24125.82595997  .00001582  00000-0  14039-3 0  9997,2 55418  69.9996 343.5174 0003050 266.0912  93.9898 14.98322577 69687,6950.216,96.107,574.201,569.961,0.0
55418.0,STARLINK-5030,PAYLOAD,2024-05-05 13:26:51,14.9833502,0.0002995,70.0,341.6656,267.732,92.3496,5.8481e-05,6.05e-06,0.0,0 STARLINK-5030,1 55418U 23014AD  24126.56031424  .00000605  00000-0  58481-4 0  9994,2 55418  70.0000 341.6656 0002995 267.7320  92.3496 14.98335020 69794,6950.177,96.107,574.124,569.961,0.0
55418.0,STARLINK-5030,PAYLOAD,2024-05-05 21:27:31,14.98336979,0.0003004,69.9999,340.8239,268.0208,92.0607,6.2983e-05,6.59e-06,0.0,0 STARLINK-5030,1 55418U 23014AD  24126.89411169  .00000659  00000-0  62983-4 0  9999,2 55418  69.9999 340.8239 0003004 268.0208  92.0607 14.98336979 70783,6950.171,96.107,574.124,569.948,0.0
55418.0,STARLINK-5030,PAYLOAD,2024-05-06 15:05:00,14.98327453,0.0002959,69.9999,338.9723,269.6553,90.4267,8.4512e-05,9.15e-06,0.0,0 STARLINK-5030,1 55418U 23014AD  24127.62847705  .00000915  00000-0  84512-4 0  9997,2 55418  69.9999 338.9723 0002959 269.6553  90.4267 14.98327453 70890,6950.201,96.107,574.122,570.009,0.0
55418.0,STARLINK-5030,PAYLOAD,2024-05-06 19:53:24,14.98329532,0.0002983,69.9998,338.4673,268.368,91.7137,9.0121e-05,9.82e-06,0.0,0 STARLINK-5030,1 55418U 23014AD  24127.82875513  .00000982  00000-0  90121-4 0  9994,2 55418  69.9998 338.4673 0002983 268.3680  91.7137 14.98329532 69980,6950.194,96.107,574.133,569.986,0.0
55418.0,STARLINK-5030,PAYLOAD,2024-05-06 21:29:32,14.98328799,0.0002859,70.0,338.2992,267.1713,92.9119,0.00010737,1.188e-05,0.0,0 STARLINK-5030,1 55418U 23014AD  24127.89551536  .00001188  00000-0  10737-3 0  9990,2 55418  70.0000 338.2992 0002859 267.1713  92.9119 14.98328799 70939,6950.197,96.107,574.049,570.075,0.0
55418.0,STARLINK-5030,PAYLOAD,2024-05-07 13:30:52,14.98335781,0.0003136,69.9996,336.6155,267.2325,92.8475,4.213e-05,4.1e-06,0.0,0 STARLINK-5030,1 55418U 23014AD  24128.56311122  .00000410  00000-0  42130-4 0  9990,2 55418  69.9996 336.6155 0003136 267.2325  92.8475 14.98335781 71037,6950.175,96.107,574.22,569.86,0.0
55418.0,STARLINK-5030,PAYLOAD,2024-05-07 19:55:24,14.98344111,0.000284,70.0001,335.9433,269.1178,90.9655,0.00013786,1.553e-05,0.0,0 STARLINK-5030,1 55418U 23014AD  24128.83014224  .00001553  00000-0  13786-3 0  9996,2 55418  70.0001 335.9433 0002840 269.1178  90.9655 14.98344111 70132,6950.149,96.106,573.988,570.04,0.0
55418.0,STARLINK-5030,PAYLOAD,2024-05-07 21:31:32,14.98344458,0.000279,70.0001,335.7751,271.4156,88.6683,0.00014136,1.595e-05,0.0,0 STARLINK-5030,1 55418U 23014AD  24128.89690156  .00001595  00000-0  14136-3 0  9992,2 55418  70.0001 335.7751 0002790 271.4156  88.6683 14.98344458 71083,6950.148,96.106,573.952,570.074,0.0
55418.0,STARLINK-5030,PAYLOAD,2024-05-08 07:08:21,14.98327769,0.0003005,70.0001,334.7647,267.2092,92.8723,-3.3831e-05,-4.97e-06,0.0,0 STARLINK-5030,1 55418U 23014AD  24129.29747337 -.00000497  00000-0 -33831-4 0  9997,2 55418  70.0001 334.7647 0003005 267.2092  92.8723 14.98327769 70209,6950.2,96.107,574.153,569.976,0.0
55418.0,STARLINK-5030,PAYLOAD,2024-05-08 21:33:34,14.98325157,0.0002932,69.9995,333.2492,267.9092,92.1731,-2.8942e-05,-4.38e-06,0.0,0 STARLINK-5030,1 55418U 23014AD  24129.89831641 -.00000438  00000-0 -28942-4 0  9997,2 55418  69.9995 333.2492 0002932 267.9092  92.1731 14.98325157 71230,6950.208,96.107,574.111,570.035,0.0
55418.0,STARLINK-5030,PAYLOAD,2024-05-09 07:10:22,14.9832797,0.0002929,69.9997,332.2385,264.2354,95.8471,2.9545e-05,2.6e-06,0.0,0 STARLINK-5030,1 55418U 23014AD  24130.29887452  .00000260  00000-0  29545-4 0  9995,2 55418  69.9997 332.2385 0002929 264.2354  95.8471 14.98327970 70357,6950.199,96.107,574.1,570.028,0.0
55418.0,STARLINK-5030,PAYLOAD,2024-05-09 13:34:54,14.98329189,0.0003238,69.9995,331.565,267.1755,92.9033,6.3064e-05,6.59e-06,0.0,0 STARLINK-5030,1 55418U 23014AD  24130.56591261  .00000659  00000-0  63064-4 0  9991,2 55418  69.9995 331.5650 0003238 267.1755  92.9033 14.98329189 71338,6950.195,96.107,574.311,569.81,0.0
